start=new Date('2022-04-28T00:00:00.000Z').valueOf();
sats=[{"OBJECT_NAME":"STARLINK-2402","NORAD_CAT_ID":"47819","PERIOD":"95.592","CENTER_NAME":"EARTH","DECAY_DATE":null,"APOAPSIS":"548.645","SITE":"AFETR","MEAN_MOTION_DDOT":"0.0000000000000","REV_AT_EPOCH":"6380","EPOCH":"2022-04-27T11:43:21.589248","OBJECT_ID":"2021-018AJ","TIME_SYSTEM":"UTC","CLASSIFICATION_TYPE":"U","MEAN_MOTION":"15.06401155","ARG_OF_PERICENTER":"43.8471","OBJECT_TYPE":"PAYLOAD","REF_FRAME":"TEME","LAUNCH_DATE":"2021-03-11","MEAN_ANOMALY":"316.2683","ELEMENT_SET_NO":"999","MEAN_ELEMENT_THEORY":"SGP4","MEAN_MOTION_DOT":"0.00000118","FILE":"3418497","PERIAPSIS":"545.775","SEMIMAJOR_AXIS":"6925.345","TLE_LINE1":"1 47819U 21018AJ  22117.48844432  .00000118  00000-0  26829-4 0  9992","EPHEMERIS_TYPE":"0","GP_ID":"202158052","BSTAR":"0.00002682900000","ECCENTRICITY":"0.00020720","RCS_SIZE":"LARGE","INCLINATION":"53.0526","COUNTRY_CODE":"US","RA_OF_ASC_NODE":"111.2380","TLE_LINE2":"2 47819  53.0526 111.2380 0002072  43.8471 316.2683 15.06401155 63800"},{"RA_OF_ASC_NODE":"121.6301","COUNTRY_CODE":"US","INCLINATION":"53.0526","TLE_LINE2":"2 47820  53.0526 121.6301 0001499  46.6646 313.4467 15.06398104 63647","SEMIMAJOR_AXIS":"6925.354","PERIAPSIS":"546.181","MEAN_MOTION_DOT":"0.00001258","FILE":"3418497","BSTAR":"0.00010335000000","RCS_SIZE":"LARGE","ECCENTRICITY":"0.00014990","GP_ID":"202158798","EPHEMERIS_TYPE":"0","TLE_LINE1":"1 47820U 21018AK  22117.40274831  .00001258  00000-0  10335-3 0  9996","TIME_SYSTEM":"UTC","OBJECT_ID":"2021-018AK","EPOCH":"2022-04-27T09:39:57.453984","ELEMENT_SET_NO":"999","LAUNCH_DATE":"2021-03-11","MEAN_ELEMENT_THEORY":"SGP4","MEAN_ANOMALY":"313.4467","OBJECT_TYPE":"PAYLOAD","REF_FRAME":"TEME","ARG_OF_PERICENTER":"46.6646","CLASSIFICATION_TYPE":"U","MEAN_MOTION":"15.06398104","NORAD_CAT_ID":"47820","OBJECT_NAME":"STARLINK-2403","REV_AT_EPOCH":"6364","MEAN_MOTION_DDOT":"0.0000000000000","SITE":"AFETR","CENTER_NAME":"EARTH","DECAY_DATE":null,"APOAPSIS":"548.257","PERIOD":"95.592"},{"INCLINATION":"53.0532","COUNTRY_CODE":"US","RA_OF_ASC_NODE":"111.4260","TLE_LINE2":"2 47821  53.0532 111.4260 0001737  60.7547 299.3615 15.06395602 63735","FILE":"3418497","MEAN_MOTION_DOT":"-0.00000916","PERIAPSIS":"546.024","SEMIMAJOR_AXIS":"6925.362","EPHEMERIS_TYPE":"0","TLE_LINE1":"1 47821U 21018AL  22117.44696395 -.00000916  00000-0 -42631-4 0  9991","GP_ID":"202157552","ECCENTRICITY":"0.00017370","RCS_SIZE":"LARGE","BSTAR":"-0.00004263100000","EPOCH":"2022-04-27T10:43:37.685280","OBJECT_ID":"2021-018AL","TIME_SYSTEM":"UTC","CLASSIFICATION_TYPE":"U","MEAN_MOTION":"15.06395602","ARG_OF_PERICENTER":"60.7547","OBJECT_TYPE":"PAYLOAD","REF_FRAME":"TEME","ELEMENT_SET_NO":"999","LAUNCH_DATE":"2021-03-11","MEAN_ANOMALY":"299.3615","MEAN_ELEMENT_THEORY":"SGP4","OBJECT_NAME":"STARLINK-2406","NORAD_CAT_ID":"47821","PERIOD":"95.592","APOAPSIS":"548.430","CENTER_NAME":"EARTH","DECAY_DATE":null,"SITE":"AFETR","MEAN_MOTION_DDOT":"0.0000000000000","REV_AT_EPOCH":"6373"},{"MEAN_MOTION_DOT":"0.00000963","FILE":"3418497","PERIAPSIS":"545.800","SEMIMAJOR_AXIS":"6925.374","TLE_LINE1":"1 47822U 21018AM  22117.52439379  .00000963  00000-0  83585-4 0  9991","EPHEMERIS_TYPE":"0","GP_ID":"202157301","BSTAR":"0.00008358500000","ECCENTRICITY":"0.00020770","RCS_SIZE":"LARGE","INCLINATION":"53.0552","COUNTRY_CODE":"US","RA_OF_ASC_NODE":"121.0827","TLE_LINE2":"2 47822  53.0552 121.0827 0002077  41.6430 318.4716 15.06391732 63613","OBJECT_NAME":"STARLINK-2407","NORAD_CAT_ID":"47822","PERIOD":"95.593","CENTER_NAME":"EARTH","DECAY_DATE":null,"APOAPSIS":"548.677","SITE":"AFETR","REV_AT_EPOCH":"6361","MEAN_MOTION_DDOT":"0.0000000000000","EPOCH":"2022-04-27T12:35:07.623456","OBJECT_ID":"2021-018AM","TIME_SYSTEM":"UTC","MEAN_MOTION":"15.06391732","CLASSIFICATION_TYPE":"U","ARG_OF_PERICENTER":"41.6430","REF_FRAME":"TEME","OBJECT_TYPE":"PAYLOAD","LAUNCH_DATE":"2021-03-11","ELEMENT_SET_NO":"999","MEAN_ELEMENT_THEORY":"SGP4","MEAN_ANOMALY":"318.4716"},{"NORAD_CAT_ID":"47823","OBJECT_NAME":"STARLINK-2408","MEAN_MOTION_DDOT":"0.0000000000000","REV_AT_EPOCH":"6343","SITE":"AFETR","CENTER_NAME":"EARTH","DECAY_DATE":null,"APOAPSIS":"548.534","PERIOD":"95.592","TIME_SYSTEM":"UTC","OBJECT_ID":"2021-018AN","EPOCH":"2022-04-27T16:08:45.049632","LAUNCH_DATE":"2021-03-11","MEAN_ELEMENT_THEORY":"SGP4","ELEMENT_SET_NO":"999","MEAN_ANOMALY":"305.7159","REF_FRAME":"TEME","OBJECT_TYPE":"PAYLOAD","ARG_OF_PERICENTER":"54.4009","MEAN_MOTION":"15.06403810","CLASSIFICATION_TYPE":"U","SEMIMAJOR_AXIS":"6925.337","PERIAPSIS":"545.869","MEAN_MOTION_DOT":"0.00001094","FILE":"3418691","BSTAR":"0.00009235900000","RCS_SIZE":"LARGE","ECCENTRICITY":"0.00019240","GP_ID":"202165707","TLE_LINE1":"1 47823U 21018AN  22117.67274363  .00001094  00000-0  92359-4 0  9993","EPHEMERIS_TYPE":"0","RA_OF_ASC_NODE":"110.4186","COUNTRY_CODE":"US","INCLINATION":"53.0546","TLE_LINE2":"2 47823  53.0546 110.4186 0001924  54.4009 305.7159 15.06403810 63432"},{"RA_OF_ASC_NODE":"111.3557","COUNTRY_CODE":"US","INCLINATION":"53.0546","TLE_LINE2":"2 47824  53.0546 111.3557 0002002  49.2250 310.8912 15.06403940 63734","SEMIMAJOR_AXIS":"6925.336","PERIAPSIS":"545.815","FILE":"3418497","MEAN_MOTION_DOT":"0.00001853","RCS_SIZE":"LARGE","ECCENTRICITY":"0.00020020","BSTAR":"0.00014326000000","GP_ID":"202158298","EPHEMERIS_TYPE":"0","TLE_LINE1":"1 47824U 21018AP  22117.46264121  .00001853  00000-0  14326-3 0  9992","TIME_SYSTEM":"UTC","OBJECT_ID":"2021-018AP","EPOCH":"2022-04-27T11:06:12.200544","LAUNCH_DATE":"2021-03-11","MEAN_ANOMALY":"310.8912","ELEMENT_SET_NO":"999","MEAN_ELEMENT_THEORY":"SGP4","OBJECT_TYPE":"PAYLOAD","REF_FRAME":"TEME","ARG_OF_PERICENTER":"49.2250","CLASSIFICATION_TYPE":"U","MEAN_MOTION":"15.06403940","NORAD_CAT_ID":"47824","OBJECT_NAME":"STARLINK-2409","MEAN_MOTION_DDOT":"0.0000000000000","REV_AT_EPOCH":"6373","SITE":"AFETR","APOAPSIS":"548.588","DECAY_DATE":null,"CENTER_NAME":"EARTH","PERIOD":"95.592"},{"SEMIMAJOR_AXIS":"6925.369","FILE":"3418497","MEAN_MOTION_DOT":"0.00000001","PERIAPSIS":"545.936","GP_ID":"202157052","ECCENTRICITY":"0.00018730","RCS_SIZE":"LARGE","BSTAR":"0.00001896400000","EPHEMERIS_TYPE":"0","TLE_LINE1":"1 47825U 21018AQ  22117.34838862  .00000001  00000-0  18964-4 0  9996","COUNTRY_CODE":"US","RA_OF_ASC_NODE":"111.8694","INCLINATION":"53.0541","TLE_LINE2":"2 47825  53.0541 111.8694 0001873  58.5466 301.5706 15.06393455 63720","NORAD_CAT_ID":"47825","OBJECT_NAME":"STARLINK-2410","SITE":"AFETR","REV_AT_EPOCH":"6372","MEAN_MOTION_DDOT":"0.0000000000000","PERIOD":"95.593","APOAPSIS":"548.531","DECAY_DATE":null,"CENTER_NAME":"EARTH","OBJECT_ID":"2021-018AQ","TIME_SYSTEM":"UTC","EPOCH":"2022-04-27T08:21:40.776768","OBJECT_TYPE":"PAYLOAD","REF_FRAME":"TEME","MEAN_ELEMENT_THEORY":"SGP4","LAUNCH_DATE":"2021-03-11","ELEMENT_SET_NO":"999","MEAN_ANOMALY":"301.5706","CLASSIFICATION_TYPE":"U","MEAN_MOTION":"15.06393455","ARG_OF_PERICENTER":"58.5466"},{"INCLINATION":"53.0537","RA_OF_ASC_NODE":"110.4004","COUNTRY_CODE":"US","TLE_LINE2":"2 47826  53.0537 110.4004 0002252  42.8862 317.2302 15.06388100 63439","PERIAPSIS":"545.690","FILE":"3418826","MEAN_MOTION_DOT":"0.00001101","SEMIMAJOR_AXIS":"6925.385","EPHEMERIS_TYPE":"0","TLE_LINE1":"1 47826U 21018AR  22117.67644011  .00001101  00000-0  92847-4 0  9998","RCS_SIZE":"LARGE","ECCENTRICITY":"0.00022520","BSTAR":"0.00009284700000","GP_ID":"202169035","EPOCH":"2022-04-27T16:14:04.425504","TIME_SYSTEM":"UTC","OBJECT_ID":"2021-018AR","ARG_OF_PERICENTER":"42.8862","CLASSIFICATION_TYPE":"U","MEAN_MOTION":"15.06388100","LAUNCH_DATE":"2021-03-11","MEAN_ELEMENT_THEORY":"SGP4","ELEMENT_SET_NO":"999","MEAN_ANOMALY":"317.2302","REF_FRAME":"TEME","OBJECT_TYPE":"PAYLOAD","OBJECT_NAME":"STARLINK-2411","NORAD_CAT_ID":"47826","APOAPSIS":"548.810","DECAY_DATE":null,"CENTER_NAME":"EARTH","PERIOD":"95.593","MEAN_MOTION_DDOT":"0.0000000000000","REV_AT_EPOCH":"6343","SITE":"AFETR"},{"OBJECT_ID":"2021-018AS","TIME_SYSTEM":"UTC","EPOCH":"2022-04-27T10:29:01.856256","OBJECT_TYPE":"PAYLOAD","REF_FRAME":"TEME","MEAN_ELEMENT_THEORY":"SGP4","LAUNCH_DATE":"2021-03-11","ELEMENT_SET_NO":"999","MEAN_ANOMALY":"299.5040","MEAN_MOTION":"15.06392517","CLASSIFICATION_TYPE":"U","ARG_OF_PERICENTER":"60.6119","NORAD_CAT_ID":"47827","OBJECT_NAME":"STARLINK-2413","SITE":"AFETR","MEAN_MOTION_DDOT":"0.0000000000000","REV_AT_EPOCH":"6393","PERIOD":"95.593","CENTER_NAME":"EARTH","DECAY_DATE":null,"APOAPSIS":"548.420","COUNTRY_CODE":"US","RA_OF_ASC_NODE":"101.4716","INCLINATION":"53.0533","TLE_LINE2":"2 47827  53.0533 101.4716 0001709  60.6119 299.5040 15.06392517 63938","SEMIMAJOR_AXIS":"6925.371","MEAN_MOTION_DOT":"0.00000164","FILE":"3418497","PERIAPSIS":"546.053","GP_ID":"202158053","BSTAR":"0.00002991200000","RCS_SIZE":"LARGE","ECCENTRICITY":"0.00017090","TLE_LINE1":"1 47827U 21018AS  22117.43682704  .00000164  00000-0  29912-4 0  9995","EPHEMERIS_TYPE":"0"},{"EPHEMERIS_TYPE":"0","TLE_LINE1":"1 47828U 21018AT  22117.32903890  .00000589  00000-0  58449-4 0  9994","GP_ID":"202158799","BSTAR":"0.00005844900000","ECCENTRICITY":"0.00021250","RCS_SIZE":"LARGE","MEAN_MOTION_DOT":"0.00000589","FILE":"3418497","PERIAPSIS":"545.766","SEMIMAJOR_AXIS":"6925.373","TLE_LINE2":"2 47828  53.0541 121.9586 0002125  40.2211 319.8935 15.06392096 63582","INCLINATION":"53.0541","COUNTRY_CODE":"US","RA_OF_ASC_NODE":"121.9586","PERIOD":"95.593","CENTER_NAME":"EARTH","DECAY_DATE":null,"APOAPSIS":"548.709","SITE":"AFETR","MEAN_MOTION_DDOT":"0.0000000000000","REV_AT_EPOCH":"6358","OBJECT_NAME":"STARLINK-2415","NORAD_CAT_ID":"47828","MEAN_MOTION":"15.06392096","CLASSIFICATION_TYPE":"U","ARG_OF_PERICENTER":"40.2211","OBJECT_TYPE":"PAYLOAD","REF_FRAME":"TEME","ELEMENT_SET_NO":"999","LAUNCH_DATE":"2021-03-11","MEAN_ELEMENT_THEORY":"SGP4","MEAN_ANOMALY":"319.8935","EPOCH":"2022-04-27T07:53:48.960960","OBJECT_ID":"2021-018AT","TIME_SYSTEM":"UTC"}];
